IRIDIUM 166             
1 43570U 18061B   24234.33127619  .00000924  00000+0  32277-3 0  9990
2 43570  86.4016 334.5921 0002118  88.4503 271.6935 14.34216325318100
IRIDIUM 158             
1 43571U 18061C   24233.81117783  .00000160  00000+0  50221-4 0  9996
2 43571  86.4017 334.8185 0001957  93.0093 267.1327 14.34213960318009
IRIDIUM 165             
1 43572U 18061D   24234.32494538  .00001024  00000+0  35868-3 0  9999
2 43572  86.4018 334.6381 0002071  93.6227 266.5206 14.34218789318092
IRIDIUM 155             
1 43573U 18061E   24234.21711122  .00000981  00000+0  34322-3 0  9994
2 43573  86.4012 334.5846 0002028  89.0632 271.0796 14.34216404318056
IRIDIUM 154             
1 43574U 18061F   24234.33761713  .00000867  00000+0  30243-3 0  9990
2 43574  86.3995 334.6348 0002662  97.1492 263.0007 14.34221552318115
IRIDIUM 163             
1 43575U 18061G   24234.31860234  .00001023  00000+0  35829-3 0  9997
2 43575  86.4016 334.5797 0002258  91.6974 268.4480 14.34216931318088
IRIDIUM 156             
1 43576U 18061H   24234.36299001  .00000912  00000+0  31848-3 0  9994
2 43576  86.4016 334.5676 0001961  94.1403 266.0017 14.34217591318072
IRIDIUM 164             
1 43577U 18061J   24234.34396286  .00000796  00000+0  27730-3 0  9991
2 43577  86.4017 334.6053 0002281 102.5178 257.6273 14.34217012318127
